COMMENT,ORIGINATOR,NORAD_CAT_ID,OBJECT_NAME,OBJECT_TYPE,CLASSIFICATION_TYPE,INTLDES,EPOCH,EPOCH_MICROSECONDS,MEAN_MOTION,ECCENTRICITY,INCLINATION,RA_OF_ASC_NODE,ARG_OF_PERICENTER,MEAN_ANOMALY,EPHEMERIS_TYPE,ELEMENT_SET_NO,REV_AT_EPOCH,BSTAR,MEAN_MOTION_DOT,MEAN_MOTION_DDOT,FILE,TLE_LINE0,TLE_LINE1,TLE_LINE2,OBJECT_ID,OBJECT_NUMBER,SEMIMAJOR_AXIS,PERIOD,APOGEE,PERIGEE,DECAYED,date
GENERATED VIA SPACETRACK.ORG API,18 SPCS,46300,SPACEBEE-21,PAYLOAD,U,20061AE,2023/3/18 18:31,717696,15.43309531,0.0003159,97.4125,153.5548,234.1601,125.9353,0,999,14037,0.0026326,0.00118808,0,3864420,0 SPACEBEE-21,1 46300U 20061AE  23077.77209164  .00118808  00000-0  26326-2 0  9994,2 46300  97.4125 153.5548 0003159 234.1601 125.9353 15.43309531140376,2020-061AE,46300,6814.487,93.306,438.504,434.199,1,
GENERATED VIA SPACETRACK.ORG API,18 SPCS,46300,SPACEBEE-21,PAYLOAD,U,20061AE,2023/3/18 18:31,717696,15.43309531,0.0003159,97.4125,153.5548,234.1601,125.9353,0,999,14037,0.0026326,0.00118808,0,3864479,0 SPACEBEE-21,1 46300U 20061AE  23077.77209164  .00118808  00000-0  26326-2 0  9994,2 46300  97.4125 153.5548 0003159 234.1601 125.9353 15.43309531140376,2020-061AE,46300,6814.487,93.306,438.504,434.199,1,
GENERATED VIA SPACETRACK.ORG API,18 SPCS,46300,SPACEBEE-21,PAYLOAD,U,20061AE,2023/3/19 11:38,39424,15.43492671,0.0003152,97.4125,154.281,232.3372,127.759,0,999,14048,0.0029116,0.00132451,0,3864996,0 SPACEBEE-21,1 46300U 20061AE  23078.48526666  .00132451  00000-0  29116-2 0  9992,2 46300  97.4125 154.2810 0003152 232.3372 127.7590 15.43492671140487,2020-061AE,46300,6813.948,93.295,437.96,433.665,1,
GENERATED VIA SPACETRACK.ORG API,18 SPCS,46300,SPACEBEE-21,PAYLOAD,U,20061AE,2023/3/19 11:38,39424,15.43492671,0.0003152,97.4125,154.281,232.3372,127.759,0,999,14048,0.0029116,0.00132451,0,3865049,0 SPACEBEE-21,1 46300U 20061AE  23078.48526666  .00132451  00000-0  29116-2 0  9992,2 46300  97.4125 154.2810 0003152 232.3372 127.7590 15.43492671140487,2020-061AE,46300,6813.948,93.295,437.96,433.665,1,
GENERATED VIA SPACETRACK.ORG API,18 SPCS,46300,SPACEBEE-21,PAYLOAD,U,20061AE,2023/3/19 17:52,28224,15.43555461,0.0003197,97.4126,154.545,232.7198,127.3759,0,999,14052,0.0027999,0.00127555,0,3865354,0 SPACEBEE-21,1 46300U 20061AE  23078.74458366  .00127555  00000-0  27999-2 0  9998,2 46300  97.4126 154.5450 0003197 232.7198 127.3759 15.43555461140525,2020-061AE,46300,6813.763,93.291,437.806,433.45,1,
GENERATED VIA SPACETRACK.ORG API,18 SPCS,46300,SPACEBEE-21,PAYLOAD,U,20061AE,2023/3/20 4:45,173536,15.43682028,0.0003228,97.4124,155.0067,230.8056,129.2905,0,999,14059,0.0027496,0.00125767,0,3865912,0 SPACEBEE-21,1 46300U 20061AE  23079.19835849  .00125767  00000-0  27496-2 0  9998,2 46300  97.4124 155.0067 0003228 230.8056 129.2905 15.43682028140591,2020-061AE,46300,6813.39,93.283,437.455,433.056,1,
GENERATED VIA SPACETRACK.ORG API,18 SPCS,46300,SPACEBEE-21,PAYLOAD,U,20061AE,2023/3/20 18:45,741568,15.43832666,0.0003266,97.4117,155.6011,231.9218,128.1736,0,999,14068,0.0028754,0.00132305,0,3866068,0 SPACEBEE-21,1 46300U 20061AE  23079.78173312  .00132305  00000-0  28754-2 0  9997,2 46300  97.4117 155.6011 0003266 231.9218 128.1736 15.43832666140687,2020-061AE,46300,6812.947,93.274,437.037,432.587,1,
GENERATED VIA SPACETRACK.ORG API,18 SPCS,46300,SPACEBEE-21,PAYLOAD,U,20061AE,2023/3/20 18:45,741568,15.43832666,0.0003266,97.4117,155.6011,231.9218,128.1736,0,999,14068,0.0028754,0.00132305,0,3866115,0 SPACEBEE-21,1 46300U 20061AE  23079.78173312  .00132305  00000-0  28754-2 0  9997,2 46300  97.4117 155.6011 0003266 231.9218 128.1736 15.43832666140687,2020-061AE,46300,6812.947,93.274,437.037,432.587,1,
GENERATED VIA SPACETRACK.ORG API,18 SPCS,46300,SPACEBEE-21,PAYLOAD,U,20061AE,2023/3/21 4:05,119584,15.4394668,0.000342,97.4117,155.997,230.7195,129.375,0,999,14074,0.0029246,0.00135139,0,3866704,0 SPACEBEE-21,1 46300U 20061AE  23080.17061481  .00135139  00000-0  29246-2 0  9990,2 46300  97.4117 155.9970 0003420 230.7195 129.3750 15.43946680140745,2020-061AE,46300,6812.612,93.267,436.807,432.147,1,
GENERATED VIA SPACETRACK.ORG API,18 SPCS,46300,SPACEBEE-21,PAYLOAD,U,20061AE,2023/3/21 4:05,119584,15.4394668,0.000342,97.4117,155.997,230.7195,129.375,0,999,14074,0.0029246,0.00135139,0,3866730,0 SPACEBEE-21,1 46300U 20061AE  23080.17061481  .00135139  00000-0  29246-2 0  9990,2 46300  97.4117 155.9970 0003420 230.7195 129.3750 15.43946680140745,2020-061AE,46300,6812.612,93.267,436.807,432.147,1,
GENERATED VIA SPACETRACK.ORG API,18 SPCS,46300,SPACEBEE-21,PAYLOAD,U,20061AE,2023/3/22 17:25,144672,15.44394432,0.0003392,97.411,157.5824,228.9757,131.1198,0,999,14098,0.0032601,0.00153301,0,3867797,0 SPACEBEE-21,1 46300U 20061AE  23081.72586973  .00153301  00000-0  32601-2 0  9990,2 46300  97.4110 157.5824 0003392 228.9757 131.1198 15.44394432140981,2020-061AE,46300,6811.295,93.24,435.47,430.85,1,
GENERATED VIA SPACETRACK.ORG API,18 SPCS,46300,SPACEBEE-21,PAYLOAD,U,20061AE,2023/3/22 17:25,144672,15.44394432,0.0003392,97.411,157.5824,228.9757,131.1198,0,999,14098,0.0032601,0.00153301,0,3868201,0 SPACEBEE-21,1 46300U 20061AE  23081.72586973  .00153301  00000-0  32601-2 0  9990,2 46300  97.4110 157.5824 0003392 228.9757 131.1198 15.44394432140981,2020-061AE,46300,6811.295,93.24,435.47,430.85,1,
GENERATED VIA SPACETRACK.ORG API,18 SPCS,46300,SPACEBEE-21,PAYLOAD,U,20061AE,2023/3/23 13:38,227936,15.44639322,0.0003453,97.4109,158.4417,229.2187,130.8762,0,999,14111,0.0031953,0.00151465,0,3868494,0 SPACEBEE-21,1 46300U 20061AE  23082.56810449  .00151465  00000-0  31953-2 0  9999,2 46300  97.4109 158.4417 0003453 229.2187 130.8762 15.44639322141115,2020-061AE,46300,6810.575,93.226,434.792,430.088,1,
GENERATED VIA SPACETRACK.ORG API,18 SPCS,46300,SPACEBEE-21,PAYLOAD,U,20061AE,2023/3/23 19:51,80160,15.44757559,0.0003483,97.4106,158.7057,228.8745,131.2203,0,999,14115,0.0044636,0.00214196,0,3868654,0 SPACEBEE-21,1 46300U 20061AE  23082.82722315  .00214196  00000-0  44636-2 0  9995,2 46300  97.4106 158.7057 0003483 228.8745 131.2203 15.44757559141155,2020-061AE,46300,6810.228,93.219,434.465,429.721,1,
GENERATED VIA SPACETRACK.ORG API,18 SPCS,46300,SPACEBEE-21,PAYLOAD,U,20061AE,2023/3/23 21:24,811232,15.44782013,0.0003495,97.4106,158.7717,228.5422,131.5526,0,999,14116,0.0044135,0.00211903,0,3868816,0 SPACEBEE-21,1 46300U 20061AE  23082.89200013  .00211903  00000-0  44135-2 0  9995,2 46300  97.4106 158.7717 0003495 228.5422 131.5526 15.44782013141165,2020-061AE,46300,6810.156,93.217,434.401,429.641,1,
GENERATED VIA SPACETRACK.ORG API,18 SPCS,46300,SPACEBEE-21,PAYLOAD,U,20061AE,2023/3/24 3:37,586400,15.44952643,0.0003491,97.4106,159.0361,227.7185,132.3768,0,999,14120,0.0074497,0.00367114,0,3869013,0 SPACEBEE-21,1 46300U 20061AE  23083.15109475  .00367114  00000-0  74497-2 0  9995,2 46300  97.4106 159.0361 0003491 227.7185 132.3768 15.44952643141207,2020-061AE,46300,6809.654,93.207,433.896,429.142,1,
GENERATED VIA SPACETRACK.ORG API,18 SPCS,46300,SPACEBEE-21,PAYLOAD,U,20061AE,2023/3/24 11:23,73824,15.45071429,0.0003453,97.4103,159.3667,226.4894,133.6068,0,999,14125,0.0051604,0.00251501,0,3869490,0 SPACEBEE-21,1 46300U 20061AE  23083.47493141  .00251501  00000-0  51604-2 0  9993,2 46300  97.4103 159.3667 0003453 226.4894 133.6068 15.45071429141254,2020-061AE,46300,6809.305,93.2,433.521,428.819,1,
GENERATED VIA SPACETRACK.ORG API,18 SPCS,46300,SPACEBEE-21,PAYLOAD,U,20061AE,2023/3/24 11:23,73824,15.45071429,0.0003453,97.4103,159.3667,226.4894,133.6068,0,999,14125,0.0051604,0.00251501,0,3869846,0 SPACEBEE-21,1 46300U 20061AE  23083.47493141  .00251501  00000-0  51604-2 0  9993,2 46300  97.4103 159.3667 0003453 226.4894 133.6068 15.45071429141254,2020-061AE,46300,6809.305,93.2,433.521,428.819,1,
GENERATED VIA SPACETRACK.ORG API,18 SPCS,46300,SPACEBEE-21,PAYLOAD,U,20061AE,2023/3/24 20:43,211648,15.45209869,0.0003422,97.41,159.7632,225.6561,134.4408,0,999,14131,0.0034298,0.00166073,0,3870003,0 SPACEBEE-21,1 46300U 20061AE  23083.86349782  .00166073  00000-0  34298-2 0  9996,2 46300  97.4100 159.7632 0003422 225.6561 134.4408 15.45209869141310,2020-061AE,46300,6808.898,93.191,433.093,428.433,1,
GENERATED VIA SPACETRACK.ORG API,18 SPCS,46300,SPACEBEE-21,PAYLOAD,U,20061AE,2023/3/24 22:16,280384,15.45231229,0.0003442,97.4099,159.8292,225.3313,134.7656,0,999,14132,0.0033828,0.00163869,0,3870109,0 SPACEBEE-21,1 46300U 20061AE  23083.92825556  .00163869  00000-0  33828-2 0  9999,2 46300  97.4099 159.8292 0003442 225.3313 134.7656 15.45231229141328,2020-061AE,46300,6808.836,93.19,433.044,428.357,1,
GENERATED VIA SPACETRACK.ORG API,18 SPCS,46300,SPACEBEE-21,PAYLOAD,U,20061AE,2023/3/25 21:35,68352,15.45546366,0.0003556,97.4094,160.8208,226.6774,133.4179,0,999,14147,0.0032583,0.00159445,0,3871104,0 SPACEBEE-21,1 46300U 20061AE  23084.89951468  .00159445  00000-0  32583-2 0  9990,2 46300  97.4094 160.8208 0003556 226.6774 133.4179 15.45546366141476,2020-061AE,46300,6807.91,93.171,432.196,427.354,1,
GENERATED VIA SPACETRACK.ORG API,18 SPCS,46300,SPACEBEE-21,PAYLOAD,U,20061AE,2023/3/26 3:48,131648,15.45627365,0.0003548,97.4094,161.0853,226.5455,133.5499,0,999,14151,0.0031605,0.00154995,0,3871362,0 SPACEBEE-21,1 46300U 20061AE  23085.15848532  .00154995  00000-0  31605-2 0  9996,2 46300  97.4094 161.0853 0003548 226.5455 133.5499 15.45627365141511,2020-061AE,46300,6807.672,93.166,431.953,427.122,1,
GENERATED VIA SPACETRACK.ORG API,18 SPCS,46300,SPACEBEE-21,PAYLOAD,U,20061AE,2023/3/26 11:34,509248,15.45710114,0.0003502,97.4093,161.4164,226.4075,133.6883,0,999,14156,0.0029654,0.00145657,0,3871649,0 SPACEBEE-21,1 46300U 20061AE  23085.48218182  .00145657  00000-0  29654-2 0  9990,2 46300  97.4093 161.4164 0003502 226.4075 133.6883 15.45710114141564,2020-061AE,46300,6807.429,93.161,431.678,426.91,1,
